[{"OBJECT_NAME":"STARLINK-2405","OBJECT_ID":"2021-021BM","EPOCH":"2026-03-10T00:00:02.999808","MEAN_MOTION":15.24543976,"ECCENTRICITY":0.00013532,"INCLINATION":53.1335,"RA_OF_ASC_NODE":279.4306,"ARG_OF_PERICENTER":70.8844,"MEAN_ANOMALY":307.4888,"EPHEMERIS_TYPE":0,"CLASSIFICATION_TYPE":"U","NORAD_CAT_ID":47919,"ELEMENT_SET_NO":999,"REV_AT_EPOCH":574,"BSTAR":0.041119409,"MEAN_MOTION_DOT":0.0110971,"MEAN_MOTION_DDOT":0},{"OBJECT_NAME":"ION SCV-010","OBJECT_ID":"2023-054Q","EPOCH":"2026-03-09T16:02:35.904768","MEAN_MOTION":15.25210322,"ECCENTRICITY":0.00127052,"INCLINATION":97.3904,"RA_OF_ASC_NODE":319.4312,"ARG_OF_PERICENTER":188.785,"MEAN_ANOMALY":171.3168,"EPHEMERIS_TYPE":0,"CLASSIFICATION_TYPE":"U","NORAD_CAT_ID":56192,"ELEMENT_SET_NO":999,"REV_AT_EPOCH":16102,"BSTAR":0.00025045068,"MEAN_MOTION_DOT":6.231e-5,"MEAN_MOTION_DDOT":0}]
